start=new Date('2023-06-23T00:00:00.000Z').valueOf();
sats=[{"MEAN_MOTION":"15.08836955","OBJECT_ID":"2022-052D","SITE":"AFETR","ECCENTRICITY":"0.00010530","FILE":"3939926","TLE_LINE2":"2 52601  53.2165  49.2640 0001053  98.8894 261.2217 15.08836955 61578","MEAN_ANOMALY":"261.2217","CENTER_NAME":"EARTH","EPOCH":"2023-06-22T09:13:12.938592","MEAN_MOTION_DDOT":"0.0000000000000","ARG_OF_PERICENTER":"98.8894","OBJECT_TYPE":"PAYLOAD","EPHEMERIS_TYPE":"0","RCS_SIZE":"LARGE","INCLINATION":"53.2165","BSTAR":"-0.00001250500000","MEAN_ELEMENT_THEORY":"SGP4","APOAPSIS":"540.483","MEAN_MOTION_DOT":"-0.00000487","PERIAPSIS":"539.026","COUNTRY_CODE":"US","TIME_SYSTEM":"UTC","REV_AT_EPOCH":"6157","GP_ID":"234458305","OBJECT_NAME":"STARLINK-4027","NORAD_CAT_ID":"52601","LAUNCH_DATE":"2022-05-14","SEMIMAJOR_AXIS":"6917.890","RA_OF_ASC_NODE":"49.2640","PERIOD":"95.438","REF_FRAME":"TEME","TLE_LINE1":"1 52601U 22052D   23173.38417753 -.00000487  00000-0 -12505-4 0  9997","ELEMENT_SET_NO":"999","DECAY_DATE":null,"CLASSIFICATION_TYPE":"U"},{"EPOCH":"2023-06-22T15:29:27.869280","CENTER_NAME":"EARTH","MEAN_ANOMALY":"282.3746","SITE":"AFETR","OBJECT_ID":"2022-052E","MEAN_MOTION":"15.08834742","TLE_LINE2":"2 52602  53.2174  48.0907 0001198  77.7380 282.3746 15.08834742 61616","ECCENTRICITY":"0.00011980","FILE":"3940253","BSTAR":"0.00007336700000","INCLINATION":"53.2174","MEAN_ELEMENT_THEORY":"SGP4","RCS_SIZE":"LARGE","EPHEMERIS_TYPE":"0","OBJECT_TYPE":"PAYLOAD","ARG_OF_PERICENTER":"77.7380","MEAN_MOTION_DDOT":"0.0000000000000","LAUNCH_DATE":"2022-05-14","OBJECT_NAME":"STARLINK-4012","NORAD_CAT_ID":"52602","COUNTRY_CODE":"US","TIME_SYSTEM":"UTC","PERIAPSIS":"538.933","GP_ID":"234465233","REV_AT_EPOCH":"6161","APOAPSIS":"540.590","MEAN_MOTION_DOT":"0.00000880","CLASSIFICATION_TYPE":"U","PERIOD":"95.438","RA_OF_ASC_NODE":"48.0907","DECAY_DATE":null,"TLE_LINE1":"1 52602U 22052E   23173.64546145  .00000880  00000-0  73367-4 0  9993","ELEMENT_SET_NO":"999","REF_FRAME":"TEME","SEMIMAJOR_AXIS":"6917.896"},{"NORAD_CAT_ID":"52603","OBJECT_NAME":"STARLINK-4016","LAUNCH_DATE":"2022-05-14","APOAPSIS":"540.552","MEAN_MOTION_DOT":"-0.00001254","PERIAPSIS":"538.928","TIME_SYSTEM":"UTC","COUNTRY_CODE":"US","REV_AT_EPOCH":"6152","GP_ID":"234444465","RA_OF_ASC_NODE":"50.8353","PERIOD":"95.437","REF_FRAME":"TEME","TLE_LINE1":"1 52603U 22052F   23173.03553060 -.00001254  00000-0 -60710-4 0  9997","DECAY_DATE":null,"ELEMENT_SET_NO":"999","CLASSIFICATION_TYPE":"U","SEMIMAJOR_AXIS":"6917.875","MEAN_ANOMALY":"277.3446","CENTER_NAME":"EARTH","EPOCH":"2023-06-22T00:51:09.843840","MEAN_MOTION":"15.08841851","OBJECT_ID":"2022-052F","SITE":"AFETR","FILE":"3939371","ECCENTRICITY":"0.00011740","TLE_LINE2":"2 52603  53.2170  50.8353 0001174  82.7680 277.3446 15.08841851 61522","RCS_SIZE":"LARGE","INCLINATION":"53.2170","BSTAR":"-0.00006071000000","MEAN_ELEMENT_THEORY":"SGP4","MEAN_MOTION_DDOT":"0.0000000000000","ARG_OF_PERICENTER":"82.7680","OBJECT_TYPE":"PAYLOAD","EPHEMERIS_TYPE":"0"},{"RCS_SIZE":"LARGE","INCLINATION":"53.2162","BSTAR":"0.00005382900000","MEAN_ELEMENT_THEORY":"SGP4","ARG_OF_PERICENTER":"119.5096","MEAN_MOTION_DDOT":"0.0000000000000","EPHEMERIS_TYPE":"0","OBJECT_TYPE":"PAYLOAD","MEAN_ANOMALY":"240.5983","CENTER_NAME":"EARTH","EPOCH":"2023-06-22T01:00:22.987872","MEAN_MOTION":"15.08845346","OBJECT_ID":"2022-052G","SITE":"AFETR","ECCENTRICITY":"0.00008690","FILE":"3939371","TLE_LINE2":"2 52604  53.2162  50.8062 0000869 119.5096 240.5983 15.08845346 61522","RA_OF_ASC_NODE":"50.8062","PERIOD":"95.437","REF_FRAME":"TEME","DECAY_DATE":null,"TLE_LINE1":"1 52604U 22052G   23173.04193273  .00000569  00000-0  53829-4 0  9994","ELEMENT_SET_NO":"999","CLASSIFICATION_TYPE":"U","SEMIMAJOR_AXIS":"6917.864","NORAD_CAT_ID":"52604","OBJECT_NAME":"STARLINK-4013","LAUNCH_DATE":"2022-05-14","APOAPSIS":"540.330","MEAN_MOTION_DOT":"0.00000569","PERIAPSIS":"539.128","COUNTRY_CODE":"US","TIME_SYSTEM":"UTC","REV_AT_EPOCH":"6152","GP_ID":"234444512"},{"MEAN_MOTION_DOT":"0.00000112","APOAPSIS":"540.338","GP_ID":"234451868","REV_AT_EPOCH":"6150","COUNTRY_CODE":"US","TIME_SYSTEM":"UTC","PERIAPSIS":"539.097","LAUNCH_DATE":"2022-05-14","NORAD_CAT_ID":"52605","OBJECT_NAME":"STARLINK-4000","SEMIMAJOR_AXIS":"6917.853","DECAY_DATE":null,"TLE_LINE1":"1 52605U 22052H   23173.40763048  .00000112  00000-0  25111-4 0  9995","ELEMENT_SET_NO":"999","REF_FRAME":"TEME","PERIOD":"95.437","RA_OF_ASC_NODE":"54.1591","CLASSIFICATION_TYPE":"U","TLE_LINE2":"2 52605  53.2171  54.1591 0000897  75.1939 284.9152 15.08849092 61501","FILE":"3939679","ECCENTRICITY":"0.00008970","SITE":"AFETR","MEAN_MOTION":"15.08849092","OBJECT_ID":"2022-052H","MEAN_ANOMALY":"284.9152","EPOCH":"2023-06-22T09:46:59.273472","CENTER_NAME":"EARTH","ARG_OF_PERICENTER":"75.1939","MEAN_MOTION_DDOT":"0.0000000000000","EPHEMERIS_TYPE":"0","OBJECT_TYPE":"PAYLOAD","RCS_SIZE":"LARGE","MEAN_ELEMENT_THEORY":"SGP4","BSTAR":"0.00002511100000","INCLINATION":"53.2171"},{"MEAN_ANOMALY":"260.1786","EPOCH":"2023-06-22T00:55:05.255328","CENTER_NAME":"EARTH","SITE":"AFETR","MEAN_MOTION":"15.08841292","OBJECT_ID":"2022-052J","TLE_LINE2":"2 52606  53.2176  50.8184 0000917  99.9310 260.1786 15.08841292 61523","FILE":"3939371","ECCENTRICITY":"0.00009170","RCS_SIZE":"LARGE","BSTAR":"0.00005142200000","INCLINATION":"53.2176","MEAN_ELEMENT_THEORY":"SGP4","ARG_OF_PERICENTER":"99.9310","MEAN_MOTION_DDOT":"0.0000000000000","OBJECT_TYPE":"PAYLOAD","EPHEMERIS_TYPE":"0","LAUNCH_DATE":"2022-05-14","OBJECT_NAME":"STARLINK-3928","NORAD_CAT_ID":"52606","APOAPSIS":"540.376","MEAN_MOTION_DOT":"0.00000531","COUNTRY_CODE":"US","TIME_SYSTEM":"UTC","PERIAPSIS":"539.107","GP_ID":"234444469","REV_AT_EPOCH":"6152","PERIOD":"95.437","RA_OF_ASC_NODE":"50.8184","TLE_LINE1":"1 52606U 22052J   23173.03825527  .00000531  00000-0  51422-4 0  9995","DECAY_DATE":null,"ELEMENT_SET_NO":"999","REF_FRAME":"TEME","CLASSIFICATION_TYPE":"U","SEMIMAJOR_AXIS":"6917.876"},{"LAUNCH_DATE":"2022-05-14","OBJECT_NAME":"STARLINK-3947","NORAD_CAT_ID":"52607","GP_ID":"234451874","REV_AT_EPOCH":"6150","TIME_SYSTEM":"UTC","COUNTRY_CODE":"US","PERIAPSIS":"538.934","MEAN_MOTION_DOT":"0.00000330","APOAPSIS":"540.578","CLASSIFICATION_TYPE":"U","TLE_LINE1":"1 52607U 22052K   23173.40123660  .00000330  00000-0  38821-4 0  9991","ELEMENT_SET_NO":"999","DECAY_DATE":null,"REF_FRAME":"TEME","PERIOD":"95.438","RA_OF_ASC_NODE":"54.1925","SEMIMAJOR_AXIS":"6917.891","EPOCH":"2023-06-22T09:37:46.842240","CENTER_NAME":"EARTH","MEAN_ANOMALY":"264.7747","TLE_LINE2":"2 52607  53.2164  54.1925 0001188  95.3381 264.7747 15.08836443 61507","FILE":"3939680","ECCENTRICITY":"0.00011880","SITE":"AFETR","OBJECT_ID":"2022-052K","MEAN_MOTION":"15.08836443","MEAN_ELEMENT_THEORY":"SGP4","BSTAR":"0.00003882100000","INCLINATION":"53.2164","RCS_SIZE":"LARGE","EPHEMERIS_TYPE":"0","OBJECT_TYPE":"PAYLOAD","ARG_OF_PERICENTER":"95.3381","MEAN_MOTION_DDOT":"0.0000000000000"},{"SEMIMAJOR_AXIS":"6917.883","REF_FRAME":"TEME","TLE_LINE1":"1 52608U 22052L   23173.03089716  .00000310  00000-0  37565-4 0  9996","ELEMENT_SET_NO":"999","DECAY_DATE":null,"RA_OF_ASC_NODE":"50.8482","PERIOD":"95.438","CLASSIFICATION_TYPE":"U","MEAN_MOTION_DOT":"0.00000310","APOAPSIS":"540.456","REV_AT_EPOCH":"6152","GP_ID":"234445086","PERIAPSIS":"539.041","TIME_SYSTEM":"UTC","COUNTRY_CODE":"US","OBJECT_NAME":"STARLINK-3979","NORAD_CAT_ID":"52608","LAUNCH_DATE":"2022-05-14","ARG_OF_PERICENTER":"82.6831","MEAN_MOTION_DDOT":"0.0000000000000","EPHEMERIS_TYPE":"0","OBJECT_TYPE":"PAYLOAD","RCS_SIZE":"LARGE","MEAN_ELEMENT_THEORY":"SGP4","INCLINATION":"53.2184","BSTAR":"0.00003756500000","ECCENTRICITY":"0.00010230","FILE":"3939395","TLE_LINE2":"2 52608  53.2184  50.8482 0001023  82.6831 277.4278 15.08839024 61528","MEAN_MOTION":"15.08839024","OBJECT_ID":"2022-052L","SITE":"AFETR","MEAN_ANOMALY":"277.4278","CENTER_NAME":"EARTH","EPOCH":"2023-06-22T00:44:29.514624"},{"TLE_LINE2":"2 52609  53.2168  47.8755 0001134  97.8709 262.2412 15.08836782 61626","ECCENTRICITY":"0.00011340","FILE":"3939976","SITE":"AFETR","OBJECT_ID":"2022-052M","MEAN_MOTION":"15.08836782","MEAN_ANOMALY":"262.2412","EPOCH":"2023-06-22T16:22:26.331744","CENTER_NAME":"EARTH","ARG_OF_PERICENTER":"97.8709","MEAN_MOTION_DDOT":"0.0000000000000","OBJECT_TYPE":"PAYLOAD","EPHEMERIS_TYPE":"0","RCS_SIZE":"LARGE","MEAN_ELEMENT_THEORY":"SGP4","BSTAR":"0.00002819300000","INCLINATION":"53.2168","MEAN_MOTION_DOT":"0.00000161","APOAPSIS":"540.540","GP_ID":"234458887","REV_AT_EPOCH":"6162","COUNTRY_CODE":"US","TIME_SYSTEM":"UTC","PERIAPSIS":"538.971","LAUNCH_DATE":"2022-05-14","OBJECT_NAME":"STARLINK-3997","NORAD_CAT_ID":"52609","SEMIMAJOR_AXIS":"6917.890","DECAY_DATE":null,"TLE_LINE1":"1 52609U 22052M   23173.68224921  .00000161  00000-0  28193-4 0  9998","ELEMENT_SET_NO":"999","REF_FRAME":"TEME","PERIOD":"95.438","RA_OF_ASC_NODE":"47.8755","CLASSIFICATION_TYPE":"U"},{"MEAN_ELEMENT_THEORY":"SGP4","BSTAR":"0.00005425600000","INCLINATION":"53.2177","RCS_SIZE":"LARGE","EPHEMERIS_TYPE":"0","OBJECT_TYPE":"PAYLOAD","ARG_OF_PERICENTER":"89.2077","MEAN_MOTION_DDOT":"0.0000000000000","EPOCH":"2023-06-21T22:33:59.659776","CENTER_NAME":"EARTH","MEAN_ANOMALY":"270.9029","TLE_LINE2":"2 52610  53.2177  56.2562 0000999  89.2077 270.9029 15.08843909 61437","ECCENTRICITY":"0.00009990","FILE":"3939377","SITE":"AFETR","MEAN_MOTION":"15.08843909","OBJECT_ID":"2022-052N","CLASSIFICATION_TYPE":"U","TLE_LINE1":"1 52610U 22052N   23172.94027384  .00000576  00000-0  54256-4 0  9991","ELEMENT_SET_NO":"999","DECAY_DATE":null,"REF_FRAME":"TEME","PERIOD":"95.437","RA_OF_ASC_NODE":"56.2562","SEMIMAJOR_AXIS":"6917.868","LAUNCH_DATE":"2022-05-14","NORAD_CAT_ID":"52610","OBJECT_NAME":"STARLINK-3998","GP_ID":"234444810","REV_AT_EPOCH":"6143","TIME_SYSTEM":"UTC","COUNTRY_CODE":"US","PERIAPSIS":"539.042","MEAN_MOTION_DOT":"0.00000576","APOAPSIS":"540.425"}];
